{"fetched_at":"2026-07-23T17:55:08.470Z","source":"https://celestrak.org/NORAD/elements/gp.php?GROUP=oneweb&FORMAT=JSON","constellation":"oneweb","records":[{"OBJECT_NAME":"ONEWEB-0229","OBJECT_ID":"2021-045N","EPOCH":"2026-07-23T04:32:08.670336","CLASSIFICATION_TYPE":"U","MEAN_MOTION":13.15547765,"ECCENTRICITY":0.00020139,"INCLINATION":87.8981,"RA_OF_ASC_NODE":252.0189,"ARG_OF_PERICENTER":100.3791,"MEAN_ANOMALY":259.7566,"EPHEMERIS_TYPE":0,"NORAD_CAT_ID":48779,"ELEMENT_SET_NO":999,"REV_AT_EPOCH":24914,"BSTAR":0.00037435629,"MEAN_MOTION_DOT":0.00000154,"MEAN_MOTION_DDOT":0},{"OBJECT_NAME":"ONEWEB-0228","OBJECT_ID":"2021-045P","EPOCH":"2026-07-23T03:30:42.994080","CLASSIFICATION_TYPE":"U","MEAN_MOTION":13.15549649,"ECCENTRICITY":0.00021358,"INCLINATION":87.899,"RA_OF_ASC_NODE":252.0221,"ARG_OF_PERICENTER":98.5999,"MEAN_ANOMALY":261.5374,"EPHEMERIS_TYPE":0,"NORAD_CAT_ID":48780,"ELEMENT_SET_NO":999,"REV_AT_EPOCH":24905,"BSTAR":0.00022187959,"MEAN_MOTION_DOT":9.6e-7,"MEAN_MOTION_DDOT":0},{"OBJECT_NAME":"ONEWEB-0232","OBJECT_ID":"2021-045Q","EPOCH":"2026-07-23T02:54:02.335968","CLASSIFICATION_TYPE":"U","MEAN_MOTION":13.15547357,"ECCENTRICITY":0.00021353,"INCLINATION":87.899,"RA_OF_ASC_NODE":252.0276,"ARG_OF_PERICENTER":96.2642,"MEAN_ANOMALY":263.8732,"EPHEMERIS_TYPE":0,"NORAD_CAT_ID":48781,"ELEMENT_SET_NO":999,"REV_AT_EPOCH":24937,"BSTAR":0.00044027365,"MEAN_MOTION_DOT":0.00000179,"MEAN_MOTION_DDOT":0},{"OBJECT_NAME":"ONEWEB-0231","OBJECT_ID":"2021-045R","EPOCH":"2026-07-23T04:11:36.574368","CLASSIFICATION_TYPE":"U","MEAN_MOTION":13.1554794,"ECCENTRICITY":0.00022766,"INCLINATION":87.8977,"RA_OF_ASC_NODE":252.0274,"ARG_OF_PERICENTER":100.8441,"MEAN_ANOMALY":259.2945,"EPHEMERIS_TYPE":0,"NORAD_CAT_ID":48782,"ELEMENT_SET_NO":999,"REV_AT_EPOCH":24907,"BSTAR":0.00013429843,"MEAN_MOTION_DOT":6.3e-7,"MEAN_MOTION_DDOT":0},{"OBJECT_NAME":"ONEWEB-0234","OBJECT_ID":"2021-045S","EPOCH":"2026-07-23T03:16:39.240192","CLASSIFICATION_TYPE":"U","MEAN_MOTION":13.15547909,"ECCENTRICITY":0.0002551,"INCLINATION":87.8993,"RA_OF_ASC_NODE":252.0181,"ARG_OF_PERICENTER":79.8146,"MEAN_ANOMALY":280.3272,"EPHEMERIS_TYPE":0,"NORAD_CAT_ID":48783,"ELEMENT_SET_NO":999,"REV_AT_EPOCH":24920,"BSTAR":0.00032243931,"MEAN_MOTION_DOT":0.00000134,"MEAN_MOTION_DDOT":0},{"OBJECT_NAME":"ONEWEB-0238","OBJECT_ID":"2021-045T","EPOCH":"2026-07-23T03:17:01.054464","CLASSIFICATION_TYPE":"U","MEAN_MOTION":13.15548974,"ECCENTRICITY":0.00022549,"INCLINATION":87.8993,"RA_OF_ASC_NODE":252.0142,"ARG_OF_PERICENTER":85.9844,"MEAN_ANOMALY":274.1544,"EPHEMERIS_TYPE":0,"NORAD_CAT_ID":48784,"ELEMENT_SET_NO":999,"REV_AT_EPOCH":24910,"BSTAR":0.00022939168,"MEAN_MOTION_DOT":9.9e-7,"MEAN_MOTION_DDOT":0},{"OBJECT_NAME":"ONEWEB-0240","OBJECT_ID":"2021-045U","EPOCH":"2026-07-23T03:47:37.630752","CLASSIFICATION_TYPE":"U","MEAN_MOTION":13.1554973,"ECCENTRICITY":0.00023943,"INCLINATION":87.8985,"RA_OF_ASC_NODE":252.019,"ARG_OF_PERICENTER":98.2383,"MEAN_ANOMALY":261.9019,"EPHEMERIS_TYPE":0,"NORAD_CAT_ID":48785,"ELEMENT_SET_NO":999,"REV_AT_EPOCH":24913,"BSTAR":-0.00038867505,"MEAN_MOTION_DOT":-0.00000133,"MEAN_MOTION_DDOT":0},{"OBJECT_NAME":"ONEWEB-0246","OBJECT_ID":"2021-045V","EPOCH":"2026-07-23T03:39:39.665088","CLASSIFICATION_TYPE":"U","MEAN_MOTION":13.15548745,"ECCENTRICITY":0.0002032,"INCLINATION":87.8988,"RA_OF_ASC_NODE":252.0244,"ARG_OF_PERICENTER":99.6125,"MEAN_ANOMALY":260.5235,"EPHEMERIS_TYPE":0,"NORAD_CAT_ID":48786,"ELEMENT_SET_NO":999,"REV_AT_EPOCH":24900,"BSTAR":0.00002675565,"MEAN_MOTION_DOT":2.3e-7,"MEAN_MOTION_DDOT":0},{"OBJECT_NAME":"ONEWEB-0210","OBJECT_ID":"2021-045W","EPOCH":"2026-07-23T04:52:40.702368","CLASSIFICATION_TYPE":"U","MEAN_MOTION":13.15548377,"ECCENTRICITY":0.0002119,"INCLINATION":87.8985,"RA_OF_ASC_NODE":252.0111,"ARG_OF_PERICENTER":121.9043,"MEAN_ANOMALY":238.2294,"EPHEMERIS_TYPE":0,"NORAD_CAT_ID":48787,"ELEMENT_SET_NO":999,"REV_AT_EPOCH":24905,"BSTAR":0.00039761094,"MEAN_MOTION_DOT":0.00000163,"MEAN_MOTION_DDOT":0},{"OBJECT_NAME":"ONEWEB-0214","OBJECT_ID":"2021-045X","EPOCH":"2026-07-23T03:15:41.989824","CLASSIFICATION_TYPE":"U","MEAN_MOTION":13.15547264,"ECCENTRICITY":0.00017388,"INCLINATION":87.899,"RA_OF_ASC_NODE":252.0219,"ARG_OF_PERICENTER":103.2786,"MEAN_ANOMALY":256.8539,"EPHEMERIS_TYPE":0,"NORAD_CAT_ID":48788,"ELEMENT_SET_NO":999,"REV_AT_EPOCH":24901,"BSTAR":0.00015760533,"MEAN_MOTION_DOT":7.2e-7,"MEAN_MOTION_DDOT":0},{"OBJECT_NAME":"ONEWEB-0221","OBJECT_ID":"2021-045Y","EPOCH":"2026-07-23T03:25:58.524672","CLASSIFICATION_TYPE":"U","MEAN_MOTION":13.15548343,"ECCENTRICITY":0.00021377,"INCLINATION":87.8986,"RA_OF_ASC_NODE":252.0283,"ARG_OF_PERICENTER":100.0621,"MEAN_ANOMALY":260.075,"EPHEMERIS_TYPE":0,"NORAD_CAT_ID":48789,"ELEMENT_SET_NO":999,"REV_AT_EPOCH":24910,"BSTAR":0.00022096297,"MEAN_MOTION_DOT":9.6e-7,"MEAN_MOTION_DDOT":0},{"OBJECT_NAME":"ONEWEB-0213","OBJECT_ID":"2021-045Z","EPOCH":"2026-07-23T04:59:31.249248","CLASSIFICATION_TYPE":"U","MEAN_MOTION":13.15548711,"ECCENTRICITY":0.00021552,"INCLINATION":87.8988,"RA_OF_ASC_NODE":252.0189,"ARG_OF_PERICENTER":104.9982,"MEAN_ANOMALY":255.1387,"EPHEMERIS_TYPE":0,"NORAD_CAT_ID":48790,"ELEMENT_SET_NO":999,"REV_AT_EPOCH":24917,"BSTAR":0.00015282493,"MEAN_MOTION_DOT":7e-7,"MEAN_MOTION_DDOT":0},{"OBJECT_NAME":"ONEWEB-0212","OBJECT_ID":"2021-045AA","EPOCH":"2026-07-23T04:26:25.944000","CLASSIFICATION_TYPE":"U","MEAN_MOTION":13.15547111,"ECCENTRICITY":0.00020245,"INCLINATION":87.8982,"RA_OF_ASC_NODE":252.0174,"ARG_OF_PERICENTER":95.555,"MEAN_ANOMALY":264.5812,"EPHEMERIS_TYPE":0,"NORAD_CAT_ID":48791,"ELEMENT_SET_NO":999,"REV_AT_EPOCH":24916,"BSTAR":-0.000026398117,"MEAN_MOTION_DOT":3e-8,"MEAN_MOTION_DDOT":0},{"OBJECT_NAME":"ONEWEB-0227","OBJECT_ID":"2021-045AB","EPOCH":"2026-07-23T04:25:16.085280","CLASSIFICATION_TYPE":"U","MEAN_MOTION":13.15560309,"ECCENTRICITY":0.00021611,"INCLINATION":87.8977,"RA_OF_ASC_NODE":252.0176,"ARG_OF_PERICENTER":98.5477,"MEAN_ANOMALY":261.5898,"EPHEMERIS_TYPE":0,"NORAD_CAT_ID":48792,"ELEMENT_SET_NO":999,"REV_AT_EPOCH":24911,"BSTAR":0.00093519077,"MEAN_MOTION_DOT":0.00000365,"MEAN_MOTION_DDOT":0},{"OBJECT_NAME":"ONEWEB-0226","OBJECT_ID":"2021-045AC","EPOCH":"2026-07-23T04:16:10.246368","CLASSIFICATION_TYPE":"U","MEAN_MOTION":13.15547469,"ECCENTRICITY":0.00020666,"INCLINATION":87.8981,"RA_OF_ASC_NODE":252.0236,"ARG_OF_PERICENTER":103.8288,"MEAN_ANOMALY":256.3073,"EPHEMERIS_TYPE":0,"NORAD_CAT_ID":48793,"ELEMENT_SET_NO":999,"REV_AT_EPOCH":24908,"BSTAR":-0.000024941583,"MEAN_MOTION_DOT":3e-8,"MEAN_MOTION_DDOT":0},{"OBJECT_NAME":"ONEWEB-0224","OBJECT_ID":"2021-045AD","EPOCH":"2026-07-23T03:23:41.443296","CLASSIFICATION_TYPE":"U","MEAN_MOTION":13.15549116,"ECCENTRICITY":0.00029109,"INCLINATION":87.8978,"RA_OF_ASC_NODE":252.0628,"ARG_OF_PERICENTER":90.0818,"MEAN_ANOMALY":270.0646,"EPHEMERIS_TYPE":0,"NORAD_CAT_ID":48794,"ELEMENT_SET_NO":999,"REV_AT_EPOCH":24900,"BSTAR":0.00004890643,"MEAN_MOTION_DOT":3.1e-7,"MEAN_MOTION_DDOT":0}]}
